{
  "type": "FeatureCollection",
  "features": [
    {
      "type": "Feature",
      "properties": {
        "norad_id": 38146,
        "name": "FENGYUN 1C DEB",
        "group": "fengyun-1c-debris",
        "lat": 45.043203439317786,
        "lon": -105.24529124851044,
        "alt_km": 561.9096168182377,
        "timestamp": "2025-12-10T20:49:52.843137+00:00",
        "meta_object_name": "FENGYUN 1C DEB",
        "meta_object_id": "1999-025EQT",
        "meta_epoch": "2025-12-03T10:45:50.404320",
        "meta_mean_motion": 14.59033464,
        "meta_eccentricity": 0.02030621,
        "meta_inclination": 99.485,
        "meta_ra_of_asc_node": 56.6441,
        "meta_arg_of_pericenter": 130.793,
        "meta_mean_anomaly": 291.7125,
        "meta_ephemeris_type": 0,
        "meta_classification_type": "U",
        "meta_norad_cat_id": 38146,
        "meta_element_set_no": 999,
        "meta_rev_at_epoch": 31744,
        "meta_bstar": 0.0015249301,
        "meta_mean_motion_dot": 9.498e-05,
        "meta_mean_motion_ddot": 0,
        "tle_line1": "1 38146U 99025EQT 25337.44850005  .00009498  00000+0  15249-2 0  9995",
        "tle_line2": "2 38146  99.4850  56.6441 0203062 130.7930 291.7125 14.59033464317446"
      },
      "geometry": {
        "type": "Point",
        "coordinates": [
          -105.24529124851044,
          45.043203439317786
        ]
      }
    },
    {
      "type": "Feature",
      "properties": {
        "norad_id": 38147,
        "name": "FENGYUN 1C DEB",
        "group": "fengyun-1c-debris",
        "lat": -0.48754532508730114,
        "lon": 179.06964310110274,
        "alt_km": 837.4363285730651,
        "timestamp": "2025-12-10T20:49:52.843157+00:00",
        "meta_object_name": "FENGYUN 1C DEB",
        "meta_object_id": "1999-025EQU",
        "meta_epoch": "2025-12-09T18:40:37.432992",
        "meta_mean_motion": 14.2343176,
        "meta_eccentricity": 0.00497476,
        "meta_inclination": 98.5592,
        "meta_ra_of_asc_node": 358.0831,
        "meta_arg_of_pericenter": 309.111,
        "meta_mean_anomaly": 50.5651,
        "meta_ephemeris_type": 0,
        "meta_classification_type": "U",
        "meta_norad_cat_id": 38147,
        "meta_element_set_no": 999,
        "meta_rev_at_epoch": 60345,
        "meta_bstar": 0.00097237466,
        "meta_mean_motion_dot": 2.194e-05,
        "meta_mean_motion_ddot": 0,
        "tle_line1": "1 38147U 99025EQU 25343.77821103  .00002194  00000+0  97237-3 0  9990",
        "tle_line2": "2 38147  98.5592 358.0831 0049747 309.1110  50.5651 14.23431760603458"
      },
      "geometry": {
        "type": "Point",
        "coordinates": [
          179.06964310110274,
          -0.48754532508730114
        ]
      }
    },
    {
      "type": "Feature",
      "properties": {
        "norad_id": 38149,
        "name": "FENGYUN 1C DEB",
        "group": "fengyun-1c-debris",
        "lat": -52.690339969463366,
        "lon": -11.689437423056761,
        "alt_km": 854.8588735884832,
        "timestamp": "2025-12-10T20:49:52.843168+00:00",
        "meta_object_name": "FENGYUN 1C DEB",
        "meta_object_id": "1999-025EQW",
        "meta_epoch": "2025-12-07T17:18:01.960128",
        "meta_mean_motion": 14.25910713,
        "meta_eccentricity": 0.00777044,
        "meta_inclination": 98.3566,
        "meta_ra_of_asc_node": 334.1881,
        "meta_arg_of_pericenter": 175.9559,
        "meta_mean_anomaly": 184.2267,
        "meta_ephemeris_type": 0,
        "meta_classification_type": "U",
        "meta_norad_cat_id": 38149,
        "meta_element_set_no": 999,
        "meta_rev_at_epoch": 70416,
        "meta_bstar": 0.00036135678,
        "meta_mean_motion_dot": 8.47e-06,
        "meta_mean_motion_ddot": 0,
        "tle_line1": "1 38149U 99025EQW 25341.72085602  .00000847  00000+0  36136-3 0  9995",
        "tle_line2": "2 38149  98.3566 334.1881 0077704 175.9559 184.2267 14.25910713704169"
      },
      "geometry": {
        "type": "Point",
        "coordinates": [
          -11.689437423056761,
          -52.690339969463366
        ]
      }
    },
    {
      "type": "Feature",
      "properties": {
        "norad_id": 38155,
        "name": "FENGYUN 1C DEB",
        "group": "fengyun-1c-debris",
        "lat": -68.92169118551551,
        "lon": 46.60953499866751,
        "alt_km": 847.0521426010937,
        "timestamp": "2025-12-10T20:49:52.843178+00:00",
        "meta_object_name": "FENGYUN 1C DEB",
        "meta_object_id": "1999-025ERC",
        "meta_epoch": "2025-12-09T23:26:42.825120",
        "meta_mean_motion": 14.2501054,
        "meta_eccentricity": 0.00946971,
        "meta_inclination": 98.4476,
        "meta_ra_of_asc_node": 248.4308,
        "meta_arg_of_pericenter": 135.2408,
        "meta_mean_anomaly": 225.6463,
        "meta_ephemeris_type": 0,
        "meta_classification_type": "U",
        "meta_norad_cat_id": 38155,
        "meta_element_set_no": 999,
        "meta_rev_at_epoch": 63736,
        "meta_bstar": 0.0028448127,
        "meta_mean_motion_dot": 6.943e-05,
        "meta_mean_motion_ddot": 0,
        "tle_line1": "1 38155U 99025ERC 25343.97688455  .00006943  00000+0  28448-2 0  9995",
        "tle_line2": "2 38155  98.4476 248.4308 0094697 135.2408 225.6463 14.25010540637364"
      },
      "geometry": {
        "type": "Point",
        "coordinates": [
          46.60953499866751,
          -68.92169118551551
        ]
      }
    },
    {
      "type": "Feature",
      "properties": {
        "norad_id": 38157,
        "name": "FENGYUN 1C DEB",
        "group": "fengyun-1c-debris",
        "lat": -37.84842937221384,
        "lon": -100.74850709438732,
        "alt_km": 1008.0198584803366,
        "timestamp": "2025-12-10T20:49:52.843188+00:00",
        "meta_object_name": "FENGYUN 1C DEB",
        "meta_object_id": "1999-025ERE",
        "meta_epoch": "2025-12-10T12:34:26.916096",
        "meta_mean_motion": 14.21721958,
        "meta_eccentricity": 0.02740752,
        "meta_inclination": 99.6558,
        "meta_ra_of_asc_node": 251.273,
        "meta_arg_of_pericenter": 120.5685,
        "meta_mean_anomaly": 242.2838,
        "meta_ephemeris_type": 0,
        "meta_classification_type": "U",
        "meta_norad_cat_id": 38157,
        "meta_element_set_no": 999,
        "meta_rev_at_epoch": 76216,
        "meta_bstar": 0.00080546469,
        "meta_mean_motion_dot": 2.539e-05,
        "meta_mean_motion_ddot": 0,
        "tle_line1": "1 38157U 99025ERE 25344.52392264  .00002539  00000+0  80546-3 0  9994",
        "tle_line2": "2 38157  99.6558 251.2730 0274075 120.5685 242.2838 14.21721958762161"
      },
      "geometry": {
        "type": "Point",
        "coordinates": [
          -100.74850709438732,
          -37.84842937221384
        ]
      }
    },
    {
      "type": "Feature",
      "properties": {
        "norad_id": 38159,
        "name": "FENGYUN 1C DEB",
        "group": "fengyun-1c-debris",
        "lat": 25.6583289209446,
        "lon": 61.000536168589214,
        "alt_km": 921.3541762030209,
        "timestamp": "2025-12-10T20:49:52.843199+00:00",
        "meta_object_name": "FENGYUN 1C DEB",
        "meta_object_id": "1999-025ERG",
        "meta_epoch": "2025-12-04T22:05:20.152032",
        "meta_mean_motion": 14.03448484,
        "meta_eccentricity": 0.005704,
        "meta_inclination": 99.3156,
        "meta_ra_of_asc_node": 230.39,
        "meta_arg_of_pericenter": 2.347,
        "meta_mean_anomaly": 357.7952,
        "meta_ephemeris_type": 0,
        "meta_classification_type": "U",
        "meta_norad_cat_id": 38159,
        "meta_element_set_no": 999,
        "meta_rev_at_epoch": 83002,
        "meta_bstar": 0.0010527,
        "meta_mean_motion_dot": 1.625e-05,
        "meta_mean_motion_ddot": 0,
        "tle_line1": "1 38159U 99025ERG 25338.92037213  .00001625  00000+0  10527-2 0  9999",
        "tle_line2": "2 38159  99.3156 230.3900 0057040   2.3470 357.7952 14.03448484830021"
      },
      "geometry": {
        "type": "Point",
        "coordinates": [
          61.000536168589214,
          25.6583289209446
        ]
      }
    },
    {
      "type": "Feature",
      "properties": {
        "norad_id": 38163,
        "name": "FENGYUN 1C DEB",
        "group": "fengyun-1c-debris",
        "lat": 56.90921178190472,
        "lon": 7.098565511164377,
        "alt_km": 922.0717314166695,
        "timestamp": "2025-12-10T20:49:52.843209+00:00",
        "meta_object_name": "FENGYUN 1C DEB",
        "meta_object_id": "1999-025ERL",
        "meta_epoch": "2025-12-08T20:43:41.634048",
        "meta_mean_motion": 14.05900576,
        "meta_eccentricity": 0.0075743,
        "meta_inclination": 99.1292,
        "meta_ra_of_asc_node": 19.3646,
        "meta_arg_of_pericenter": 253.1337,
        "meta_mean_anomaly": 106.1514,
        "meta_ephemeris_type": 0,
        "meta_classification_type": "U",
        "meta_norad_cat_id": 38163,
        "meta_element_set_no": 999,
        "meta_rev_at_epoch": 24487,
        "meta_bstar": 0.0010133,
        "meta_mean_motion_dot": 1.656e-05,
        "meta_mean_motion_ddot": 0,
        "tle_line1": "1 38163U 99025ERL 25342.86367632  .00001656  00000+0  10133-2 0  9990",
        "tle_line2": "2 38163  99.1292  19.3646 0075743 253.1337 106.1514 14.05900576244874"
      },
      "geometry": {
        "type": "Point",
        "coordinates": [
          7.098565511164377,
          56.90921178190472
        ]
      }
    }
  ]
}